ONEWEB-0136             
1 47282U 20100AA  24312.62280504 -.00000277  00000+0 -80646-3 0  9999
2 47282  87.8852 107.4488 0001445  72.0190 288.1096 13.12442878187727
ONEWEB-0137             
1 47283U 20100AB  24312.35191745  .00000506  00000+0  13699-2 0  9994
2 47283  87.8844 107.5209 0001366  95.5166 264.6119 13.12441044187590
ONEWEB-0138             
1 47284U 20100AC  24312.40706156  .00000051  00000+0  10661-3 0  9991
2 47284  87.8845 107.5221 0001427  88.5007 271.6285 13.12443461187687
ONEWEB-0139             
1 47285U 20100AD  24312.36990175  .00000095  00000+0  22928-3 0  9990
2 47285  87.8851 107.5070 0001484  92.1193 268.0106 13.12442309187757
ONEWEB-0140             
1 47286U 20100AE  24312.40055612 -.00000545  00000+0 -15492-2 0  9993
2 47286  87.8845 107.4992 0001524  86.9350 273.1953 13.12443320187722
ONEWEB-0141             
1 47287U 20100AF  24312.44585742  .00000075  00000+0  17315-3 0  9993
2 47287  87.8846 107.5040 0001403  98.2326 261.8961 13.12442083187711
ONEWEB-0142             
1 47288U 20100AG  24312.41437159 -.00000535  00000+0 -15226-2 0  9990
2 47288  87.8853 107.4918 0001374  95.2314 264.8972 13.12435657187707
ONEWEB-0143             
1 47289U 20100AH  24312.44436766  .00000128  00000+0  31934-3 0  9998
2 47289  87.8846 107.5072 0001472  91.9404 268.1893 13.12439402187682
